MEAN_MOTION;ECCENTRICITY;INCLINATION;RA_OF_ASC_NODE;ARG_OF_PERICENTER;MEAN_ANOMALY;BSTAR;MEAN_MOTION_DOT;MEAN_MOTION_DDOT;TYPE
12.35974034;0.0003058;51.9991;342.9067;47.6369;32.4575;-0.00011214;-1.1E-6;0;Globalstar
12.35974;0.0003065;51.999;342.1493;48.1289;115.1401;-0.00013503;-1.13E-6;0;Globalstar
12.35973982;0.0003082;51.9989;340.0953;49.5814;28.1666;-0.00013294;-1.13E-6;0;Globalstar
12.35973949;0.0003106;51.9988;337.2838;51.393;24.1864;-0.00013148;-1.13E-6;0;Globalstar
12.35973954;0.0003109;51.9988;337.044;51.6136;32.1374;-0.00012202;-1.12E-6;0;Globalstar
12.35973945;0.0003121;51.9987;335.6626;52.543;352.7279;-0.00011525;-1.11E-6;0;Globalstar
12.35974001;0.0003128;51.9987;334.2005;53.5939;77.1464;-3.4977E-5;-1.01E-6;0;Globalstar
12.35974007;0.0003134;51.9986;333.4762;54.1263;108.8241;-2.3028E-5;-9.9E-7;0;Globalstar
12.35974006;0.000314;51.9986;332.1683;54.9658;316.6177;-1.9884E-5;-9.9E-7;0;Globalstar
12.35974023;0.000314;51.9985;331.92;55.1848;337.8153;-6.0468E-6;-9.7E-7;0;Globalstar
12.35974047;0.0003168;51.9984;329.11;57.0065;331.5092;2.8932E-5;-9.2E-7;0;Globalstar
12.35974016;0.0003168;51.9984;328.5782;57.6497;67.396;-1.6788E-6;-9.6E-7;0;Globalstar
12.35974088;0.0003189;51.9982;326.0112;59.1705;48.2223;5.538E-5;-8.9E-7;0;Globalstar
12.3597409;0.0003191;51.9982;325.5253;59.555;74.0187;5.6617E-5;-8.9E-7;0;Globalstar
12.35974093;0.0003207;51.998;322.7473;61.4979;18.3643;5.474E-5;-8.9E-7;0;Globalstar
12.35974098;0.0003209;51.998;322.4994;61.6469;38.8614;6.4472E-5;-8.8E-7;0;Globalstar
12.35974125;0.0003222;51.9979;319.9337;63.3465;17.3175;8.0053E-5;-8.6E-7;0;Globalstar
12.35974162;0.0003238;51.9977;317.122;65.2566;13.2321;0.00010286;-8.3E-7;0;Globalstar
12.35974143;0.0003246;51.9975;313.8233;67.9574;36.0715;8.6653E-5;-8.5E-7;0;Globalstar
12.35974148;0.0003248;51.9975;313.3121;68.3359;100.7681;9.0268E-5;-8.5E-7;0;Globalstar
12.35974153;0.0003255;51.9973;311.0123;69.8259;30.9828;8.6354E-5;-8.5E-7;0;Globalstar
12.35974143;0.0003268;51.9973;310.501;69.8524;96.2295;8.0808E-5;-8.6E-7;0;Globalstar
12.35974144;0.0003274;51.9972;308.4467;71.2301;9.5983;6.3213E-5;-8.8E-7;0;Globalstar
12.35974143;0.0003266;51.9972;308.1965;71.5855;33.2934;5.4035E-5;-8.9E-7;0;Globalstar
12.35974179;0.0003277;51.9971;307.6877;71.6498;94.676;9.3816E-5;-8.4E-7;0;Globalstar
12.3597418;0.0003301;51.9966;305.6347;73.0626;6.5215;6.3335E-5;-8.8E-7;0;Globalstar
12.35974202;0.0003306;51.9965;304.8819;73.5694;81.9571;0.00010398;-8.3E-7;0;Globalstar
12.35974247;0.0003277;51.9969;302.3352;75.8687;29.785;9.8826E-5;-8.4E-7;0;Globalstar
12.35974273;0.0003311;51.9963;299.5241;77.504;25.3463;0.00019062;-7.2E-7;0;Globalstar
12.35974313;0.0003312;51.9962;297.705;78.7679;297.4736;0.00021378;-6.9E-7;0;Globalstar
12.35974309;0.0003317;51.9962;296.4506;79.6499;62.8552;0.00019686;-7.1E-7;0;Globalstar
12.35974357;0.0003321;51.9962;294.1362;81.1531;15.158;0.00018821;-7.2E-7;0;Globalstar
12.35974419;0.0003329;51.9961;291.335;83.1883;354.7216;0.00018691;-7.2E-7;0;Globalstar
12.35974461;0.0003332;51.996;289.0302;84.7645;292.3797;0.00017844;-7.3E-7;0;Globalstar
12.35974552;0.0003338;51.9959;285.2248;87.7648;13.2161;0.00012541;-8.0E-7;0;Globalstar
12.35974628;0.0003335;51.9958;283.4068;89.0541;283.6059;0.00012441;-8.0E-7;0;Globalstar
12.35974686;0.000334;51.9957;281.9006;90.0382;75.5482;0.00012328;-8.0E-7;0;Globalstar
12.359747;0.0003338;51.9957;280.3484;91.0826;298.1466;9.7867E-5;-8.4E-7;0;Globalstar
12.35974711;0.0003337;51.9957;279.8473;91.5213;347.1965;9.3302E-5;-8.4E-7;0;Globalstar
12.35974757;0.0003336;51.9956;276.548;93.6188;11.5345;0.00012339;-8.0E-7;0;Globalstar
12.35974821;0.0003338;51.9955;273.7374;94.9722;6.1239;0.00014832;-7.7E-7;0;Globalstar
12.35974897;0.0003334;51.9954;271.6713;95.6029;298.4043;0.00016044;-7.6E-7;0;Globalstar
12.35974913;0.0003334;51.9955;271.1401;96.1075;33.5743;0.00016773;-7.5E-7;0;Globalstar
12.35974962;0.0003327;51.9955;268.3277;98.0232;30.2447;0.000212;-6.9E-7;0;Globalstar
12.35975115;0.0003317;51.9955;265.0597;101.2058;5.0615;0.00028757;-6.0E-7;0;Globalstar
12.35975173;0.0003314;51.9956;262.2478;103.3859;0.4739;0.0002936;-5.9E-7;0;Globalstar
12.35975254;0.0003297;51.9956;260.1822;104.8303;291.0288;0.00026576;-6.2E-7;0;Globalstar
12.35975274;0.0003289;51.9957;259.4182;105.1048;24.1501;0.00025707;-6.3E-7;0;Globalstar
12.35975315;0.000328;51.9958;256.8719;106.8539;332.4552;0.00019765;-7.1E-7;0;Globalstar
12.35975412;0.0003267;51.9959;253.5717;108.9818;358.3401;0.00015779;-7.6E-7;0;Globalstar
12.35975472;0.0003256;51.9959;250.4976;110.9711;37.0737;0.00011553;-8.1E-7;0;Globalstar
12.35975536;0.0003245;51.996;247.438;112.8783;53.8813;7.1672E-5;-8.7E-7;0;Globalstar
12.35975579;0.0003226;51.9961;245.3531;114.2288;14.5211;4.1164E-5;-9.1E-7;0;Globalstar
12.35975624;0.0003217;51.9961;243.7623;115.2982;296.2843;5.3867E-5;-8.9E-7;0;Globalstar
12.3597567;0.0003205;51.996;242.0845;116.5573;351.4868;9.3413E-5;-8.4E-7;0;Globalstar
12.35975703;0.0003195;51.996;239.7606;118.1058;318.7044;0.00013484;-7.9E-7;0;Globalstar
12.35975698;0.0003186;51.996;238.999;118.6168;47.8214;0.00014662;-7.7E-7;0;Globalstar
12.35975634;0.0003175;51.9961;236.7117;120.4316;318.4789;9.2895E-5;-8.4E-7;0;Globalstar
12.35975591;0.0003169;51.9961;235.9507;120.9961;46.6208;6.8591E-5;-8.7E-7;0;Globalstar
12.35975435;0.0003151;51.9965;233.8979;122.6776;317.8598;-0.00020219;-1.22E-6;0;Globalstar
12.35975411;0.0003139;51.9965;232.2756;123.7385;288.1919;-0.00020209;-1.22E-6;0;Globalstar
12.35975365;0.0003126;51.9965;231.0862;124.5526;313.8496;-0.00024924;-1.28E-6;0;Globalstar
12.35975354;0.0003123;51.9965;230.5686;124.8885;28.4511;-0.00024537;-1.27E-6;0;Globalstar
12.35975355;0.0003095;51.9966;228.2747;126.6717;309.4822;-0.00021362;-1.23E-6;0;Globalstar
12.35975487;0.0003079;51.9965;225.2246;128.6742;311.6235;-2.8572E-5;-1.0E-6;0;Globalstar
12.35975487;0.0003079;51.9965;225.2246;128.6742;311.6235;-2.8572E-5;-1.0E-6;0;Globalstar
12.35975716;0.000309;51.9963;222.1615;130.6228;333.1941;0.00019957;-7.1E-7;0;Globalstar
12.35975818;0.0003064;51.9963;218.8393;132.7844;33.2283;0.00019128;-7.2E-7;0;Globalstar
12.35975862;0.0003038;51.9962;216.2997;134.6612;331.5982;0.00013396;-7.9E-7;0;Globalstar
12.35975912;0.000302;51.9961;214.4797;136.2896;244.9821;0.00012465;-8.0E-7;0;Globalstar
12.35975954;0.0003013;51.9961;213.4897;136.99;324.5994;0.00011603;-8.1E-7;0;Globalstar
12.35976053;0.0003002;51.996;211.4224;138.2154;258.1277;0.00010775;-8.2E-7;0;Globalstar
12.35976078;0.0002995;51.996;210.8924;138.5573;351.882;0.00011239;-8.2E-7;0;Globalstar
12.35976227;0.0002983;51.9959;208.1127;140.5479;298.604;0.00013333;-7.9E-7;0;Globalstar
12.35976371;0.0002927;51.9958;204.7929;142.81;354.9255;0.00022927;-6.7E-7;0;Globalstar
12.35976371;0.0002927;51.9958;204.7929;142.81;354.9255;0.00022927;-6.7E-7;0;Globalstar
12.3597645;0.0002908;51.9957;202.0029;144.8159;317.5776;0.00030956;-5.7E-7;0;Globalstar
12.35976493;0.0002903;51.9956;200.8675;145.699;260.2295;0.00032628;-5.5E-7;0;Globalstar
12.35976489;0.00029;51.9956;200.1827;146.1598;231.4183;0.00031153;-5.7E-7;0;Globalstar
12.35976495;0.0002891;51.9956;198.9286;147.0317;356.4335;0.00030005;-5.8E-7;0;Globalstar
12.35976544;0.0002874;51.9955;197.125;148.3588;245.0037;0.00031393;-5.6E-7;0;Globalstar
12.35976546;0.000287;51.9955;196.6259;148.7159;290.9901;0.00030689;-5.7E-7;0;Globalstar
12.35976606;0.0002848;51.9954;193.8138;150.7482;287.6381;0.00031867;-5.6E-7;0;Globalstar
12.3597664;0.000283;51.9954;192.1919;151.9157;257.1962;0.00031676;-5.6E-7;0;Globalstar
12.35976661;0.0002815;51.9953;190.5156;153.1509;310.3083;0.00029766;-5.8E-7;0;Globalstar
12.35976679;0.0002802;51.9953;189.381;153.9852;251.8072;0.00025839;-6.3E-7;0;Globalstar
12.35976705;0.0002788;51.9952;187.4414;155.3439;349.1712;0.00020622;-7.0E-7;0;Globalstar
12.35976716;0.0002762;51.995;184.8879;157.2243;308.7375;0.0001056;-8.3E-7;0;Globalstar
12.35976705;0.0002742;51.9949;182.8274;158.6594;231.5878;3.0096E-5;-9.2E-7;0;Globalstar
12.35976673;0.000272;51.9948;180.705;160.2219;249.3687;-3.1461E-5;-1.0E-6;0;Globalstar
12.3597668;0.0002717;51.9947;179.7512;160.9613;273.2725;-3.6739E-5;-1.01E-6;0;Globalstar
12.35976679;0.0002709;51.9946;179.0282;161.4749;303.1485;-2.3276E-5;-9.9E-7;0;Globalstar
12.35976676;0.0002694;51.9946;177.8931;162.3221;245.5147;-3.9995E-5;-1.01E-6;0;Globalstar
12.35976682;0.0002683;51.9945;175.9972;163.7117;275.5965;-1.9259E-5;-9.9E-7;0;Globalstar
12.35976696;0.0002671;51.9944;174.8397;164.6182;252.1338;-5.1552E-6;-9.7E-7;0;Globalstar
12.35976752;0.0002656;51.9943;173.1432;165.9736;336.0558;8.0336E-5;-8.6E-7;0;Globalstar
12.35976809;0.0002644;51.9943;171.0666;167.5;283.3263;0.0001548;-7.6E-7;0;Globalstar
12.35976837;0.0002642;51.9942;170.3277;167.9825;337.545;0.00021163;-6.9E-7;0;Globalstar
12.35976857;0.000261;51.9941;167.5394;170.0814;297.113;0.00026273;-6.3E-7;0;Globalstar
12.35976861;0.0002587;51.9941;164.7104;172.2344;319.2128;0.00025654;-6.4E-7;0;Globalstar
12.35976892;0.0002569;51.9941;162.8963;173.6461;223.6431;0.00026188;-6.3E-7;0;Globalstar
12.35976911;0.0002555;51.9941;161.4081;174.6025;347.9824;0.00023941;-6.6E-7;0;Globalstar
12.35976928;0.0002545;51.9941;159.8504;175.8181;218.7743;0.00020856;-7.0E-7;0;Globalstar
12.35976956;0.0002534;51.994;158.5981;176.669;340.8382;0.00021052;-6.9E-7;0;Globalstar
12.35976918;0.0002516;51.994;156.7967;178.0603;225.7174;0.00011177;-8.2E-7;0;Globalstar
12.35976932;0.0002504;51.994;155.7881;178.8769;333.6968;0.00011223;-8.2E-7;0;Globalstar
12.35976978;0.0002478;51.994;152.9778;181.0108;327.0201;7.1289E-5;-8.7E-7;0;Globalstar
12.35977023;0.0002451;51.994;149.9169;183.3386;345.1208;1.3513E-5;-9.4E-7;0;Globalstar
12.3597702;0.0002441;51.994;148.6117;184.349;188.3377;-2.1543E-5;-9.9E-7;0;Globalstar
12.35977018;0.0002432;51.994;147.1095;185.3978;334.114;-5.0767E-5;-1.03E-6;0;Globalstar
12.35977004;0.000242;51.9941;145.805;186.3899;176.3179;-6.8547E-5;-1.05E-6;0;Globalstar
12.35977012;0.0002427;51.994;145.0522;186.8387;251.8463;-9.1168E-5;-1.08E-6;0;Globalstar
